OBJECT_NAME,OBJECT_ID,EPOCH,MEAN_MOTION,ECCENTRICITY,INCLINATION,RA_OF_ASC_NODE,ARG_OF_PERICENTER,MEAN_ANOMALY,EPHEMERIS_TYPE,CLASSIFICATION_TYPE,NORAD_CAT_ID,ELEMENT_SET_NO,REV_AT_EPOCH,BSTAR,MEAN_MOTION_DOT,MEAN_MOTION_DDOT
STARLINK-37948,2026-143X,2026-07-12T14:19:08.190912,15.49223628,.00005311,97.2871,237.5450,314.2724,45.8484,0,U,69670,999,441,.61040076E-3,.33288E-3,0
STARLINK-37949,2026-143Y,2026-07-12T14:00:01.999872,15.49163806,.0000814,97.2848,237.5846,76.5473,345.5986,0,U,69671,999,444,.13152479E-2,.72035E-3,0
STARLINK-37946,2026-143Z,2026-07-12T14:00:01.999872,15.49160721,.00011725,97.2852,237.6188,77.5745,62.2365,0,U,69672,999,444,.12821275E-2,.70195E-3,0
TJS-26A,2026-144A,2026-07-12T07:10:37.543296,1.00274367,.0004208,6.9538,323.2302,347.4913,194.6526,0,U,69674,999,19,0,-.341E-5,0
STARLINK-38005,2026-145A,2026-07-12T12:12:18.643104,15.75251243,.00015777,97.2845,40.2115,114.7562,245.3868,0,U,69677,999,275,.11011549E-2,.167827E-2,0
STARLINK-38009,2026-145B,2026-07-12T13:41:15.216000,15.75197807,.000172,97.2840,40.2825,352.0820,8.0418,0,U,69678,999,276,.12336415E-2,.188049E-2,0
STARLINK-37998,2026-145C,2026-07-12T14:00:01.999872,15.75287262,.0001471,97.2849,40.3023,74.5196,13.5014,0,U,69679,999,400,-.12842784E-2,-.188327E-2,0
STARLINK-37994,2026-145D,2026-07-12T14:00:01.999872,15.75272986,.00014331,97.2847,40.2989,80.1625,359.8684,0,U,69680,999,400,-.11896368E-2,-.174626E-2,0
STARLINK-37992,2026-145E,2026-07-12T14:00:01.999872,15.75276190,.00014235,97.2848,40.2995,72.2443,9.7863,0,U,69681,999,400,-.1207165E-2,-.17717E-2,0
STARLINK-37997,2026-145F,2026-07-12T14:00:01.999872,15.75272012,.00013624,97.2850,40.3017,81.9345,4.0986,0,U,69682,999,400,-.12084666E-2,-.177324E-2,0
STARLINK-37990,2026-145G,2026-07-12T10:36:14.855040,15.72763270,.00085772,97.2857,40.1518,51.5657,308.6376,0,U,69683,999,274,-.78725889E-2,-.950908E-2,0
STARLINK-37951,2026-145H,2026-07-12T13:37:11.435808,15.75193143,.0002907,97.2833,40.2831,350.2135,9.9073,0,U,69684,999,276,.11520027E-2,.175315E-2,0
STARLINK-37957,2026-145J,2026-07-12T13:35:39.614208,15.75200867,.00011386,97.2849,40.2855,46.3842,313.7518,0,U,69685,999,276,.95791759E-3,.145273E-2,0
STARLINK-37968,2026-145K,2026-07-12T13:27:01.272096,15.75189418,.00007285,97.2842,40.2942,356.0683,4.0576,0,U,69686,999,276,.10026782E-2,.152114E-2,0
STARLINK-37977,2026-145L,2026-07-12T13:26:00.211488,15.75195706,.00007364,97.2852,40.2944,57.2871,302.8465,0,U,69687,999,276,.97055817E-3,.147191E-2,0
STARLINK-37908,2026-145M,2026-07-12T13:22:57.491904,15.75205318,.0001964,97.2847,40.2994,349.8272,10.2954,0,U,69688,999,276,.12107948E-2,.18455E-2,0
STARLINK-37979,2026-145N,2026-07-12T13:22:27.041952,15.75205918,.00016227,97.2843,40.2995,0.8451,359.2817,0,U,69689,999,276,.12911325E-2,.197098E-2,0
STARLINK-37940,2026-145P,2026-07-12T13:20:55.451904,15.75201103,.00018297,97.2846,40.3012,356.7785,3.3468,0,U,69690,999,276,.11780162E-2,.179408E-2,0
STARLINK-37961,2026-145Q,2026-07-12T13:16:21.036864,15.75201244,.00007445,97.2840,40.3042,42.6005,317.5317,0,U,69691,999,276,.10841269E-2,.164812E-2,0
STARLINK-37787,2026-145R,2026-07-12T13:13:18.237792,15.75195526,.00004597,97.2823,40.3075,60.3317,299.7994,0,U,69692,999,276,.10471685E-2,.159042E-2,0
STARLINK-37962,2026-145S,2026-07-12T13:10:45.702048,15.75200972,.0000774,97.2841,40.3098,86.0656,274.0698,0,U,69693,999,276,.11028649E-2,.167718E-2,0
STARLINK-37953,2026-145T,2026-07-12T13:14:49.661952,15.75200799,.00005564,97.2834,40.3052,51.0799,309.0516,0,U,69694,999,276,.12488689E-2,.19045E-2,0
STARLINK-37926,2026-145U,2026-07-12T13:13:48.631584,15.75202957,.0000667,97.2836,40.3070,51.9081,308.2244,0,U,69695,999,276,.12333176E-2,.18804E-2,0
STARLINK-37959,2026-145V,2026-07-12T13:12:17.237664,15.75200390,.00008747,97.2846,40.3078,20.6210,339.5090,0,U,69696,999,276,.12375712E-2,.188682E-2,0
STARLINK-37976,2026-145W,2026-07-12T13:08:13.146432,15.75197346,.00005728,97.2839,40.3123,32.2155,327.9145,0,U,69697,999,276,.10598135E-2,.161014E-2,0
STARLINK-37912,2026-145X,2026-07-12T13:06:41.864832,15.75253344,.0001317,97.2834,40.3146,98.9676,261.1738,0,U,69698,999,276,.10009484E-2,.152275E-2,0
STARLINK-37974,2026-145Y,2026-07-12T13:05:40.989120,15.75206384,.00014117,97.2833,40.3155,28.0980,332.0361,0,U,69699,999,276,.1171641E-2,.178454E-2,0
STARLINK-37955,2026-145Z,2026-07-12T13:02:07.342656,15.75197351,.00016582,97.2842,40.3196,96.3436,263.8018,0,U,69700,999,276,.5474364E-3,.82343E-3,0
